[{"OBJECT_NAME":"ONEWEB-0687","OBJECT_ID":"2024-188B","EPOCH":"2026-03-09T21:45:01.625184","MEAN_MOTION":13.17648727,"ECCENTRICITY":0.00019141,"INCLINATION":87.9141,"RA_OF_ASC_NODE":25.5991,"ARG_OF_PERICENTER":63.9436,"MEAN_ANOMALY":296.1892,"EPHEMERIS_TYPE":0,"CLASSIFICATION_TYPE":"U","NORAD_CAT_ID":61595,"ELEMENT_SET_NO":999,"REV_AT_EPOCH":7282,"BSTAR":-0.00035522594,"MEAN_MOTION_DOT":-1.25e-6,"MEAN_MOTION_DDOT":0},{"OBJECT_NAME":"THORAD DELTA 1 DEB","OBJECT_ID":"1974-089AH","EPOCH":"2026-03-09T12:07:36.683616","MEAN_MOTION":13.34240522,"ECCENTRICITY":0.01209844,"INCLINATION":101.3559,"RA_OF_ASC_NODE":277.9529,"ARG_OF_PERICENTER":142.9323,"MEAN_ANOMALY":248.2297,"EPHEMERIS_TYPE":0,"CLASSIFICATION_TYPE":"U","NORAD_CAT_ID":8167,"ELEMENT_SET_NO":999,"REV_AT_EPOCH":41409,"BSTAR":0.0080162218,"MEAN_MOTION_DOT":4.113e-5,"MEAN_MOTION_DDOT":0}]
